COMMENT,ORIGINATOR,NORAD_CAT_ID,OBJECT_NAME,OBJECT_TYPE,CLASSIFICATION_TYPE,INTLDES,EPOCH,EPOCH_MICROSECONDS,MEAN_MOTION,ECCENTRICITY,INCLINATION,RA_OF_ASC_NODE,ARG_OF_PERICENTER,MEAN_ANOMALY,EPHEMERIS_TYPE,ELEMENT_SET_NO,REV_AT_EPOCH,BSTAR,MEAN_MOTION_DOT,MEAN_MOTION_DDOT,FILE,TLE_LINE0,TLE_LINE1,TLE_LINE2,OBJECT_ID,OBJECT_NUMBER,SEMIMAJOR_AXIS,PERIOD,APOGEE,PERIGEE
"GENERATED VIA SPACETRACK.ORG API","JSPOC","37793","APRIZESAT 6","PAYLOAD","U","11044F","2016-01-08 04:37:10","584768","14.71956228","0.0046222","98.2347","122.5159","305.1075","119.4489","0","999","23588","5.1814e-05","2.75e-06","0","1977509","0 APRIZESAT 6","1 37793U 11044F   16008.19248362  .00000275  00000-0  51814-4 0  9996","2 37793  98.2347 122.5159 0046222 305.1075 119.4489 14.71956228235883","2011-044F","37793","7032.966","97.828","687.339","622.324"
"GENERATED VIA SPACETRACK.ORG API","JSPOC","13768","COSMOS 1436","PAYLOAD","U","83002H","2016-01-08 04:37:12","368064","12.57683148","0.0042928","74.0243","126.4733","102.7179","339.6773","0","999","51387","-6.2246e-05","-2.6e-07","0","1977501","0 COSMOS 1436","1 13768U 83002H   16008.19250426 -.00000026  00000-0 -62246-4 0  9996","2 13768  74.0243 126.4733 0042928 102.7179 339.6773 12.57683148513872","1983-002H","13768","7810.659","114.496","1466.053","1398.994"
"GENERATED VIA SPACETRACK.ORG API","JSPOC","877","SL-3 R/B","ROCKET BODY","U","64053B","2016-01-08 04:37:28","983648","14.59200831","0.007927","65.0782","29.1726","308.2208","51.1771","0","999","72476","3.4832e-05","4.8e-07","0","1977504","0 SL-3 R/B","1 00877U 64053B   16008.19269657  .00000048  00000-0  34832-4 0  9996","2 00877  65.0782  29.1726 0079270 308.2208  51.1771 14.59200831724768","1964-053B","877","7073.892","98.684","751.832","639.682"
"GENERATED VIA SPACETRACK.ORG API","JSPOC","20721","SL-14 R/B","ROCKET BODY","U","90066B","2016-01-08 04:37:30","829152","12.41061675","0.0024563","73.6004","92.8905","303.5612","103.1497","0","999","15294","-3.2728e-05","-2.2e-07","0","1977484","0 SL-14 R/B","1 20721U 90066B   16008.19271793 -.00000022  00000-0 -32728-4 0  9999","2 20721  73.6004  92.8905 0024563 303.5612 103.1497 12.41061675152946","1990-066B","20721","7880.242","116.029","1521.464","1482.751"
"GENERATED VIA SPACETRACK.ORG API","JSPOC","10917","COSMOS 1011","PAYLOAD","U","78053A","2016-01-08 04:38:01","903776","13.75238431","0.0037324","82.9164","34.3783","155.7854","272.5239","0","999","88808","4.2312e-05","5.6e-07","0","1977478","0 COSMOS 1011","1 10917U 78053A   16008.19307759  .00000056  00000-0  42312-4 0  9994","2 10917  82.9164  34.3783 0037324 155.7854 272.5239 13.75238431888081","1978-053A","10917","7358.961","104.709","1008.292","953.359"
"GENERATED VIA SPACETRACK.ORG API","JSPOC","39260","FENGYUN 3C","PAYLOAD","U","13052A","2016-01-08 04:38:09","413664","14.19596015","0.0001528","98.7104","82.2715","78.5357","281.5996","0","999","11875","2.218e-05","3e-08","0","1977522","0 FENGYUN 3C","1 39260U 13052A   16008.19316451  .00000003  00000-0  22180-4 0  9996","2 39260  98.7104  82.2715 0001528  78.5357 281.5996 14.19596015118750","2013-052A","39260","7204.856","101.437","827.822","825.620"
"GENERATED VIA SPACETRACK.ORG API","JSPOC","25010","APSTAR 2R (TELSTAR 10)","PAYLOAD","U","97062A","2016-01-08 04:38:20","95296","0.99210347","0.0015245","2.9147","71.7297","197.6175","214.1477","0","999","6670","0","-2.1e-06","0","1978186","0 APSTAR 2R (TELSTAR 10)","1 25010U 97062A   16008.19328814 -.00000210 +00000-0 +00000-0 0  9997","2 25010 002.9147 071.7297 0015245 197.6175 214.1477 00.99210347066709","1997-062A","25010","42464.941","1451.461","36151.544","36022.068"
"GENERATED VIA SPACETRACK.ORG API","JSPOC","5731","METEOR 1-10","PAYLOAD","U","71120A","2016-01-08 04:38:36","556224","14.1142123","0.002423","81.2594","134.7767","80.2676","280.1231","0","999","25818","-4.9873e-05","-7.8e-07","0","1977501","0 METEOR 1-10","1 05731U 71120A   16008.19347866 -.00000078  00000-0 -49873-4 0  9998","2 05731  81.2594 134.7767 0024230  80.2676 280.1231 14.11421230258182","1971-120A","5731","7232.649","102.024","872.039","836.989"
"GENERATED VIA SPACETRACK.ORG API","JSPOC","26631","EROS A1","PAYLOAD","U","00079A","2016-01-08 04:38:56","868864","15.57451293","0.000314","97.5443","112.1906","343.0804","76.7092","0","999","83823","0.00070132","0.00051617","0","1977549","0 EROS A1","1 26631U 00079A   16008.19371376  .00051617  00000-0  70132-3 0  9992","2 26631  97.5443 112.1906 0003140 343.0804  76.7092 15.57451293838239","2000-079A","26631","6773.173","92.458","397.165","392.911"
"GENERATED VIA SPACETRACK.ORG API","JSPOC","9494","COSMOS 861","PAYLOAD","U","76104A","2016-01-08 04:39:00","585792","13.81558113","0.0064698","64.8576","226.6387","245.4376","256.6655","0","999","97939","2.9236e-05","-5.8e-07","0","1977546","0 COSMOS 861","1 09494U 76104A   16008.19375678 -.00000058  00000-0  29236-4 0  9995","2 09494  64.8576 226.6387 0064698 245.4376 256.6655 13.81558113979390","1976-104A","9494","7336.502","104.230","1005.833","910.901"
"GENERATED VIA SPACETRACK.ORG API","JSPOC","7363","METEOR 1-18","PAYLOAD","U","74052A","2016-01-08 04:39:09","898848","13.99789184","0.001662","81.2264","66.388","305.4668","54.4946","0","999","11889","6.9357e-05","1.14e-06","0","1977543","0 METEOR 1-18","1 07363U 74052A   16008.19386457  .00000114  00000-0  69357-4 0  9995","2 07363  81.2264  66.3880 0016620 305.4668  54.4946 13.99789184118890","1974-052A","7363","7272.662","102.872","906.614","882.440"
"GENERATED VIA SPACETRACK.ORG API","JSPOC","35635","COSMOS 2454","PAYLOAD","U","09039A","2016-01-08 04:39:16","598304","13.89586164","0.0019916","82.9543","37.1518","11.293","348.8674","0","999","32800","1.3609e-05","3.2e-07","0","1977575","0 COSMOS 2454","1 35635U 09039A   16008.19394211  .00000032  00000-0  13609-4 0  9996","2 35635  82.9543  37.1518 0019916  11.2930 348.8674 13.89586164328006","2009-039A","35635","7308.218","103.627","944.638","915.528"
"GENERATED VIA SPACETRACK.ORG API","JSPOC","21820","SL-14 R/B","ROCKET BODY","U","91086B","2016-01-08 04:39:20","145024","11.93079297","0.1576901","82.5625","68.7189","293.5728","50.7676","0","999","4405","6.9241e-05","3.4e-06","0","1977504","0 SL-14 R/B","1 21820U 91086B   16008.19398316  .00000340  00000-0  69241-4 0  9995","2 21820  82.5625  68.7189 1576901 293.5728  50.7676 11.93079297 44059","1991-086B","21820","8090.132","120.696","2987.731","436.263"
"GENERATED VIA SPACETRACK.ORG API","JSPOC","39383","DRAGONSAT","PAYLOAD","U","13064D","2016-01-08 04:39:23","675328","15.58504564","0.0007464","40.4958","290.9891","290.0875","69.9143","0","999","11796","0.0005042","0.00039593","0","1978186","0 DRAGONSAT","1 39383U 13064D   16008.19402402 +.00039593 +00000-0 +50420-3 0  9990","2 39383 040.4958 290.9891 0007464 290.0875 069.9143 15.58504564117967","2013-064D","39383","6770.121","92.396","397.039","386.933"
"GENERATED VIA SPACETRACK.ORG API","JSPOC","15483","SL-8 R/B","ROCKET BODY","U","85006B","2016-01-08 04:39:41","535936","14.36089341","0.0018961","74.0447","240.5146","347.7841","146.3327","0","999","62104","2.9014e-05","5.8e-07","0","1977505","0 SL-8 R/B","1 15483U 85006B   16008.19423074  .00000058  00000-0  29014-4 0  9998","2 15483  74.0447 240.5146 0018961 347.7841 146.3327 14.36089341621048","1985-006B","15483","7149.585","100.272","785.006","757.894"
"GENERATED VIA SPACETRACK.ORG API","JSPOC","37791","RASAT","PAYLOAD","U","11044D","2016-01-08 04:39:49","781952","14.64472101","0.002175","98.1541","99.6243","339.2222","20.8101","0","999","23478","3.4314e-05","1.33e-06","0","1977507","0 RASAT","1 37791U 11044D   16008.19432618  .00000133  00000-0  34314-4 0  9992","2 37791  98.1541  99.6243 0021750 339.2222  20.8101 14.64472101234784","2011-044D","37791","7056.907","98.328","694.121","663.423"
"GENERATED VIA SPACETRACK.ORG API","JSPOC","40040","FLOCK 1C 8","PAYLOAD","U","14033AG","2016-01-08 04:39:52","287552","14.89342085","0.0012245","97.9457","274.716","212.3161","147.7256","0","999","8429","0.00027557","2.56e-05","0","1977552","0 FLOCK 1C 8","1 40040U 14033AG  16008.19435518  .00002560  00000-0  27557-3 0  9992","2 40040  97.9457 274.7160 0012245 212.3161 147.7256 14.89342085 84297","2014-033AG","40040","6978.126","96.686","608.536","591.447"
"GENERATED VIA SPACETRACK.ORG API","JSPOC","6306","DELTA 1 R/B","ROCKET BODY","U","72097B","2016-01-08 04:39:58","548096","12.88382807","0.0270445","99.8369","93.89","86.7849","327.7917","0","999","2558","-2.5756e-05","-4.3e-07","0","1977513","0 DELTA 1 R/B","1 06306U 72097B   16008.19442764 -.00000043  00000-0 -25756-4 0  9990","2 06306  99.8369  93.8900 0270445  86.7849 327.7917 12.88382807 25587","1972-097B","6306","7686.085","111.768","1515.817","1100.084"
"GENERATED VIA SPACETRACK.ORG API","JSPOC","10702","LANDSAT 3","PAYLOAD","U","78026A","2016-01-08 04:40:11","506368","13.96632144","0.0013905","98.8502","52.4119","225.7585","176.2022","0","999","92947","0.00020743","2.45e-06","0","1977583","0 LANDSAT 3","1 10702U 78026A   16008.19457762  .00000245  00000-0  20743-3 0  9999","2 10702  98.8502  52.4119 0013905 225.7585 176.2022 13.96632144929478","1978-026A","10702","7283.617","103.105","915.610","895.354"
"GENERATED VIA SPACETRACK.ORG API","JSPOC","40025","QB50P1","PAYLOAD","U","14033R","2016-01-08 04:40:21","978912","14.87695854","0.0011546","97.9396","273.6153","229.1264","130.8952","0","999","8426","0.00010736","9.22e-06","0","1977553","0 QB50P1","1 40025U 14033R   16008.19469883  .00000922  00000-0  10736-3 0  9998","2 40025  97.9396 273.6153 0011546 229.1264 130.8952 14.87695854 84261","2014-033R","40025","6983.273","96.793","613.201","597.075"
